CCSDS_OMM_VERS = 2.0
CREATION_DATE  = 
ORIGINATOR     = 

OBJECT_NAME    = IDEFIX & ARIANE 42P R/B
OBJECT_ID      = 2002-021B
CENTER_NAME    = EARTH
REF_FRAME      = TEME
TIME_SYSTEM    = UTC
MEAN_ELEMENT_THEORY = SGP/SGP4

EPOCH          = 2025-12-21T17:50:13.286112
MEAN_MOTION    = 14.30956237
ECCENTRICITY   = .0012836
INCLINATION    = 98.5799
RA_OF_ASC_NODE = 290.3176
ARG_OF_PERICENTER = 59.3856
MEAN_ANOMALY   = 300.8591

EPHEMERIS_TYPE = 0
CLASSIFICATION_TYPE = U
NORAD_CAT_ID   = 27422
ELEMENT_SET_NO = 999
REV_AT_EPOCH   = 23287
BSTAR          = .10407E-3
MEAN_MOTION_DOT = .23E-5
MEAN_MOTION_DDOT = 0

CCSDS_OMM_VERS = 2.0
CREATION_DATE  = 
ORIGINATOR     = 

OBJECT_NAME    = AQUA
OBJECT_ID      = 2002-022A
CENTER_NAME    = EARTH
REF_FRAME      = TEME
TIME_SYSTEM    = UTC
MEAN_ELEMENT_THEORY = SGP/SGP4

EPOCH          = 2025-12-21T22:23:22.229952
MEAN_MOTION    = 14.61820667
ECCENTRICITY   = .0001439
INCLINATION    = 98.4050
RA_OF_ASC_NODE = 316.9619
ARG_OF_PERICENTER = 110.3776
MEAN_ANOMALY   = 326.1362

EPHEMERIS_TYPE = 0
CLASSIFICATION_TYPE = U
NORAD_CAT_ID   = 27424
ELEMENT_SET_NO = 999
REV_AT_EPOCH   = 25737
BSTAR          = .18434E-3
MEAN_MOTION_DOT = .871E-5
MEAN_MOTION_DDOT = 0

CCSDS_OMM_VERS = 2.0
CREATION_DATE  = 
ORIGINATOR     = 

OBJECT_NAME    = CZ-4B R/B
OBJECT_ID      = 2002-024C
CENTER_NAME    = EARTH
REF_FRAME      = TEME
TIME_SYSTEM    = UTC
MEAN_ELEMENT_THEORY = SGP/SGP4

EPOCH          = 2025-12-22T02:56:37.187232
MEAN_MOTION    = 14.14529741
ECCENTRICITY   = .0049296
INCLINATION    = 98.8985
RA_OF_ASC_NODE = 44.8612
ARG_OF_PERICENTER = 242.7563
MEAN_ANOMALY   = 171.6272

EPHEMERIS_TYPE = 0
CLASSIFICATION_TYPE = U
NORAD_CAT_ID   = 27432
ELEMENT_SET_NO = 999
REV_AT_EPOCH   = 21827
BSTAR          = .54143E-4
MEAN_MOTION_DOT = .6E-6
MEAN_MOTION_DDOT = 0

CCSDS_OMM_VERS = 2.0
CREATION_DATE  = 
ORIGINATOR     = 

OBJECT_NAME    = MIDORI II (ADEOS-II)
OBJECT_ID      = 2002-056A
CENTER_NAME    = EARTH
REF_FRAME      = TEME
TIME_SYSTEM    = UTC
MEAN_ELEMENT_THEORY = SGP/SGP4

EPOCH          = 2025-12-21T17:54:58.329216
MEAN_MOTION    = 14.29211121
ECCENTRICITY   = .000065
INCLINATION    = 98.7651
RA_OF_ASC_NODE = 308.7506
ARG_OF_PERICENTER = 149.6129
MEAN_ANOMALY   = 210.5090

EPHEMERIS_TYPE = 0
CLASSIFICATION_TYPE = U
NORAD_CAT_ID   = 27597
ELEMENT_SET_NO = 999
REV_AT_EPOCH   = 19916
BSTAR          = .94984E-4
MEAN_MOTION_DOT = .196E-5
MEAN_MOTION_DDOT = 0

CCSDS_OMM_VERS = 2.0
CREATION_DATE  = 
ORIGINATOR     = 

OBJECT_NAME    = H-2A R/B
OBJECT_ID      = 2002-056E
CENTER_NAME    = EARTH
REF_FRAME      = TEME
TIME_SYSTEM    = UTC
MEAN_ELEMENT_THEORY = SGP/SGP4

EPOCH          = 2025-12-21T21:25:45.918048
MEAN_MOTION    = 14.33683744
ECCENTRICITY   = .007107
INCLINATION    = 98.3079
RA_OF_ASC_NODE = 314.2856
ARG_OF_PERICENTER = 34.2339
MEAN_ANOMALY   = 26.0480

EPHEMERIS_TYPE = 0
CLASSIFICATION_TYPE = U
NORAD_CAT_ID   = 27601
ELEMENT_SET_NO = 999
REV_AT_EPOCH   = 20296
BSTAR          = .13772E-3
MEAN_MOTION_DOT = .352E-5
MEAN_MOTION_DDOT = 0

CCSDS_OMM_VERS = 2.0
CREATION_DATE  = 
ORIGINATOR     = 

OBJECT_NAME    = CZ-4B R/B
OBJECT_ID      = 2003-049C
CENTER_NAME    = EARTH
REF_FRAME      = TEME
TIME_SYSTEM    = UTC
MEAN_ELEMENT_THEORY = SGP/SGP4

EPOCH          = 2025-12-21T22:46:10.661664
MEAN_MOTION    = 14.54917864
ECCENTRICITY   = .0049336
INCLINATION    = 98.6793
RA_OF_ASC_NODE = 342.8607
ARG_OF_PERICENTER = 108.4940
MEAN_ANOMALY   = 252.1626

EPHEMERIS_TYPE = 0
CLASSIFICATION_TYPE = U
NORAD_CAT_ID   = 28059
ELEMENT_SET_NO = 999
REV_AT_EPOCH   = 17529
BSTAR          = .10083E-3
MEAN_MOTION_DOT = .389E-5
MEAN_MOTION_DDOT = 0

CCSDS_OMM_VERS = 2.0
CREATION_DATE  = 
ORIGINATOR     = 

OBJECT_NAME    = CZ-2C R/B
OBJECT_ID      = 2004-012C
CENTER_NAME    = EARTH
REF_FRAME      = TEME
TIME_SYSTEM    = UTC
MEAN_ELEMENT_THEORY = SGP/SGP4

EPOCH          = 2025-12-22T03:06:28.107072
MEAN_MOTION    = 15.56173419
ECCENTRICITY   = .0016526
INCLINATION    = 97.7403
RA_OF_ASC_NODE = 49.5304
ARG_OF_PERICENTER = 233.7201
MEAN_ANOMALY   = 126.2527

EPHEMERIS_TYPE = 0
CLASSIFICATION_TYPE = U
NORAD_CAT_ID   = 28222
ELEMENT_SET_NO = 999
REV_AT_EPOCH   = 19218
BSTAR          = .60251E-3
MEAN_MOTION_DOT = .42474E-3
MEAN_MOTION_DDOT = 0

CCSDS_OMM_VERS = 2.0
CREATION_DATE  = 
ORIGINATOR     = 

OBJECT_NAME    = SL-16 R/B
OBJECT_ID      = 2004-021B
CENTER_NAME    = EARTH
REF_FRAME      = TEME
TIME_SYSTEM    = UTC
MEAN_ELEMENT_THEORY = SGP/SGP4

EPOCH          = 2025-12-22T04:01:41.763936
MEAN_MOTION    = 14.14578866
ECCENTRICITY   = .0004782
INCLINATION    = 71.0005
RA_OF_ASC_NODE = 35.1802
ARG_OF_PERICENTER = 184.3737
MEAN_ANOMALY   = 175.7344

EPHEMERIS_TYPE = 0
CLASSIFICATION_TYPE = U
NORAD_CAT_ID   = 28353
ELEMENT_SET_NO = 999
REV_AT_EPOCH   = 11187
BSTAR          = .32902E-4
MEAN_MOTION_DOT = .16E-6
MEAN_MOTION_DDOT = 0

CCSDS_OMM_VERS = 2.0
CREATION_DATE  = 
ORIGINATOR     = 

OBJECT_NAME    = CZ-4B R/B
OBJECT_ID      = 2004-035C
CENTER_NAME    = EARTH
REF_FRAME      = TEME
TIME_SYSTEM    = UTC
MEAN_ELEMENT_THEORY = SGP/SGP4

EPOCH          = 2025-12-21T16:01:06.085056
MEAN_MOTION    = 15.27504209
ECCENTRICITY   = .0031612
INCLINATION    = 97.3592
RA_OF_ASC_NODE = 25.8926
ARG_OF_PERICENTER = 244.2023
MEAN_ANOMALY   = 115.5954

EPHEMERIS_TYPE = 0
CLASSIFICATION_TYPE = U
NORAD_CAT_ID   = 28415
ELEMENT_SET_NO = 999
REV_AT_EPOCH   = 16799
BSTAR          = .23975E-3
MEAN_MOTION_DOT = .6469E-4
MEAN_MOTION_DDOT = 0

CCSDS_OMM_VERS = 2.0
CREATION_DATE  = 
ORIGINATOR     = 

OBJECT_NAME    = CZ-2C R/B
OBJECT_ID      = 2004-046B
CENTER_NAME    = EARTH
REF_FRAME      = TEME
TIME_SYSTEM    = UTC
MEAN_ELEMENT_THEORY = SGP/SGP4

EPOCH          = 2025-12-21T17:22:23.162016
MEAN_MOTION    = 14.26945418
ECCENTRICITY   = .0140071
INCLINATION    = 98.1996
RA_OF_ASC_NODE = 270.5435
ARG_OF_PERICENTER = 25.8875
MEAN_ANOMALY   = 334.9228

EPHEMERIS_TYPE = 0
CLASSIFICATION_TYPE = U
NORAD_CAT_ID   = 28480
ELEMENT_SET_NO = 999
REV_AT_EPOCH   = 9738
BSTAR          = .86456E-4
MEAN_MOTION_DOT = .192E-5
MEAN_MOTION_DDOT = 0

CCSDS_OMM_VERS = 2.0
CREATION_DATE  = 
ORIGINATOR     = 

OBJECT_NAME    = ARIANE 5 R/B
OBJECT_ID      = 2004-049H
CENTER_NAME    = EARTH
REF_FRAME      = TEME
TIME_SYSTEM    = UTC
MEAN_ELEMENT_THEORY = SGP/SGP4

EPOCH          = 2025-12-22T00:26:28.063968
MEAN_MOTION    = 14.85034331
ECCENTRICITY   = .0083392
INCLINATION    = 98.2527
RA_OF_ASC_NODE = 156.6327
ARG_OF_PERICENTER = 242.4474
MEAN_ANOMALY   = 116.8249

EPHEMERIS_TYPE = 0
CLASSIFICATION_TYPE = U
NORAD_CAT_ID   = 28499
ELEMENT_SET_NO = 999
REV_AT_EPOCH   = 13426
BSTAR          = .13266E-3
MEAN_MOTION_DOT = .1139E-4
MEAN_MOTION_DDOT = 0

CCSDS_OMM_VERS = 2.0
CREATION_DATE  = 
ORIGINATOR     = 

OBJECT_NAME    = CZ-2D R/B
OBJECT_ID      = 2005-024B
CENTER_NAME    = EARTH
REF_FRAME      = TEME
TIME_SYSTEM    = UTC
MEAN_ELEMENT_THEORY = SGP/SGP4

EPOCH          = 2025-12-21T23:56:44.310048
MEAN_MOTION    = 15.53688567
ECCENTRICITY   = .0003991
INCLINATION    = 97.3622
RA_OF_ASC_NODE = 3.6905
ARG_OF_PERICENTER = 331.3795
MEAN_ANOMALY   = 28.7239

EPHEMERIS_TYPE = 0
CLASSIFICATION_TYPE = U
NORAD_CAT_ID   = 28738
ELEMENT_SET_NO = 999
REV_AT_EPOCH   = 12769
BSTAR          = .51628E-3
MEAN_MOTION_DOT = .32998E-3
MEAN_MOTION_DDOT = 0

